ONEWEB-0326             
1 49195U 21083K   23173.12652728  .00000012  00000+0 -33834-5 0  9990
2 49195  87.9249 192.3534 0002612 101.0973 259.0453 13.18684247 87487
ONEWEB-0327             
1 49196U 21083L   23173.78518363 -.00000067  00000+0 -20196-3 0  9995
2 49196  87.9247 192.1963 0002569  99.7334 260.4089 13.18689385 87596
ONEWEB-0328             
1 49197U 21083M   23173.28264109 -.00000167  00000+0 -49352-3 0  9993
2 49197  87.9047 177.1655 0001983  95.4820 264.6536 13.13470404 88980
ONEWEB-0331             
1 49198U 21083N   23173.80309170  .00000007  00000+0 -14899-4 0  9991
2 49198  87.9245 192.2373 0002297  97.5642 262.5751 13.18687441 87587
ONEWEB-0333             
1 49199U 21083P   23173.27732547 -.00000218  00000+0 -63152-3 0  9991
2 49199  87.9049 177.1682 0002036  82.8098 277.3262 13.13473235 88994
ONEWEB-0334             
1 49200U 21083Q   23173.13702224  .00000046  00000+0  82131-4 0  9994
2 49200  87.9240 131.7003 0002351  60.4495 299.6872 13.20770370 94063
ONEWEB-0335             
1 49201U 21083R   23173.73018705 -.00000340  00000+0 -96512-3 0  9991
2 49201  87.9046 177.0690 0001981  94.3133 265.8222 13.13466667 89067
ONEWEB-0336             
1 49202U 21083S   23173.77461542  .00000226  00000+0  58308-3 0  9999
2 49202  87.9045 177.0584 0002048  83.8592 276.2770 13.13471444 89070
ONEWEB-0337             
1 49203U 21083T   23173.72172215 -.00000258  00000+0 -74194-3 0  9999
2 49203  87.9047 177.0738 0001972  92.0629 268.0726 13.13467949 89066
ONEWEB-0338             
1 49204U 21083U   23173.59912385 -.00000018  00000+0 -76204-4 0  9994
2 49204  87.9245 131.5721 0001733  66.3803 293.7512 13.20769380 94153
ONEWEB-0339             
1 49205U 21083V   23173.72065331 -.00000270  00000+0 -77492-3 0  9999
2 49205  87.9044 177.0712 0001642  87.6792 272.4525 13.13470554 89042
ONEWEB-0340             
1 49206U 21083W   23173.40895875  .00000020  00000+0  19255-4 0  9994
2 49206  87.9249 192.3079 0002168  94.9196 265.2184 13.18684313 87504
ONEWEB-0341             
1 49207U 21083X   23173.79677184  .00000052  00000+0  98117-4 0  9997
2 49207  87.9246 192.1605 0001524 113.2113 246.9180 13.18681057 87575
ONEWEB-0342             
1 49208U 21083Y   23173.60419068  .00000067  00000+0  13307-3 0  9996
2 49208  87.9237 131.6109 0002003  76.8246 283.3111 13.20772275 94121
ONEWEB-0343             
1 49209U 21083Z   23173.41318527  .00000030  00000+0  43691-4 0  9994
2 49209  87.9247 192.2730 0001084 112.0416 248.0831 13.18687588 87573
ONEWEB-0344             
1 49210U 21083AA  23173.38104813  .00000632  00000+0  16958-2 0  9995
2 49210  87.9046 177.1439 0002196  95.0209 265.1171 13.13471057 89009
ONEWEB-0345             
1 49211U 21083AB  23173.39902868  .00000206  00000+0  52870-3 0  9994
2 49211  87.9047 177.1266 0002117 109.1365 250.9993 13.13468689 89014
ONEWEB-0346             
1 49212U 21083AC  23173.80098361 -.00000005  00000+0 -45818-4 0  9999
2 49212  87.9245 192.1883 0002490  98.8992 261.2422 13.18688515 87568
ONEWEB-0348             
1 49213U 21083AD  23173.14207371  .00000153  00000+0  34450-3 0  9991
2 49213  87.9238 131.6624 0002342  91.2675 268.8727 13.20773112 94091
ONEWEB-0350             
1 49214U 21083AE  23173.71325757 -.00000068  00000+0 -22012-3 0  9992
2 49214  87.9048 177.0923 0002079 101.0902 259.0460 13.13469364 89089
ONEWEB-0351             
1 49215U 21083AF  23173.81631291  .00000103  00000+0  22236-3 0  9993
2 49215  87.9212 131.5331 0001835  74.1282 286.0053 13.20771248 94158
ONEWEB-0352             
1 49216U 21083AG  23173.38949766  .00000324  00000+0  85266-3 0  9992
2 49216  87.9048 177.1401 0001779  82.7646 277.3685 13.13471791 89134
ONEWEB-0354             
1 49217U 21083AH  23173.61429776  .00000018  00000+0  12199-4 0  9999
2 49217  87.9241 131.5482 0001924  90.3086 269.8268 13.20769437 94165
ONEWEB-0355             
1 49218U 21083AJ  23173.72591675 -.00000310  00000+0 -88438-3 0  9995
2 49218  87.9047 177.0742 0001797  90.4530 269.6805 13.13473732 89056
ONEWEB-0357             
1 49219U 21083AK  23173.15720870  .00000070  00000+0  13929-3 0  9998
2 49219  87.9221 131.6649 0002121  86.7578 273.3798 13.20770123 94090
ONEWEB-0332             
1 49279U 21090A   23173.98546586  .00000227  00000+0  57695-3 0  9995
2 49279  87.9032 146.7020 0001886  71.5577 288.5758 13.14501718 84351
ONEWEB-0347             
1 49280U 21090B   23173.14711876 -.00001380  00000+0 -34251-2 0  9996
2 49280  87.9190 131.6046 0002621  69.0318 291.1095 13.20778078 87025
ONEWEB-0349             
1 49281U 21090C   23173.78598698  .00000069  00000+0  13820-3 0  9993
2 49281  87.9235 131.5239 0002225  92.6799 267.4589 13.20774129 87188
ONEWEB-0353             
1 49282U 21090D   23173.97701270  .00000158  00000+0  39113-3 0  9999
2 49282  87.9035 146.6799 0002112  74.6308 285.5055 13.14503568 85644
ONEWEB-0356             
1 49283U 21090E   23173.63196425 -.00000018  00000+0 -76699-4 0  9991
2 49283  87.9238 131.5601 0003138  88.3918 271.7575 13.20779029 87160
ONEWEB-0358             
1 49284U 21090F   23173.81375813  .00000050  00000+0  92063-4 0  9999
2 49284  87.9234 131.4993 0002441  94.5075 265.6337 13.20774118 87914
ONEWEB-0359             
1 49285U 21090G   23174.11427629 -.00000036  00000+0 -11944-3 0  9991
2 49285  87.9235 131.4761 0001800  95.8553 264.2785 13.20772973 87922
ONEWEB-0360             
1 49286U 21090H   23173.34660987  .00000067  00000+0  13328-3 0  9992
2 49286  87.9239 131.6218 0002135  87.3360 272.8017 13.20770009 87145
ONEWEB-0361             
1 49287U 21090J   23173.78094374  .00000055  00000+0  10415-3 0  9993
2 49287  87.9240 131.5318 0002309  85.1286 275.0111 13.20769514 87198
ONEWEB-0362             
1 49288U 21090K   23173.32523551  .00000039  00000+0  65601-4 0  9998
2 49288  87.9259 161.9982 0002198  80.2521 279.8860 13.19726513 83859
ONEWEB-0363             
1 49289U 21090L   23173.41984164  .00000040  00000+0  65683-4 0  9992
2 49289  87.9237 131.6025 0002370  89.1172 271.0233 13.20770950 87151
ONEWEB-0364             
1 49290U 21090M   23173.60923898  .00000048  00000+0  85546-4 0  9990
2 49290  87.9247 131.5689 0002247  77.7176 282.4209 13.20768987 88303
ONEWEB-0365             
1 49291U 21090N   23173.40946687  .00000001  00000+0 -29520-4 0  9990
2 49291  87.9256 161.9695 0001923  87.2225 272.9128 13.19723940 83845
ONEWEB-0366             
1 49292U 21090P   23173.66830933  .00000075  00000+0  16697-3 0  9995
2 49292  87.9035 146.7455 0002214  79.7397 280.3982 13.14500062 85594
ONEWEB-0367             
1 49293U 21090Q   23173.79609660  .00000027  00000+0  33884-4 0  9996
2 49293  87.9236 131.5239 0002259  76.0266 284.1118 13.20773653 87190
ONEWEB-0368             
1 49294U 21090R   23173.61680254  .00000031  00000+0  45520-4 0  9991
2 49294  87.9246 131.5675 0002828  72.0390 288.1051 13.20769097 88325
ONEWEB-0369             
1 49295U 21090S   23173.70852579 -.00000014  00000+0 -68381-4 0  9996
2 49295  87.9256 161.9072 0002210  82.9035 277.2349 13.19725295 83870
ONEWEB-0370             
1 49296U 21090T   23174.10668446  .00000019  00000+0  13924-4 0  9996
2 49296  87.9237 131.4645 0002277  83.8831 276.2562 13.20774102 87272
ONEWEB-0371             
1 49297U 21090U   23174.02021750 -.00000058  00000+0 -17618-3 0  9997
2 49297  87.9256 161.8338 0002109  85.5743 274.5630 13.19724101 83955
ONEWEB-0372             
1 49298U 21090V   23173.79356144 -.00000283  00000+0 -72683-3 0  9992
2 49298  87.9235 131.5241 0001881  73.6364 286.4976 13.20771803 87203
ONEWEB-0373             
1 49299U 21090W   23173.13955450  .00000097  00000+0  20753-3 0  9998
2 49299  87.9183 131.6118 0002565  81.4190 278.7234 13.20769579 88304
ONEWEB-0374             
1 49300U 21090X   23173.65562209 -.00000164  00000+0 -47568-3 0  9994
2 49300  87.9032 146.7420 0002178  84.0482 276.0896 13.14501503 85582
ONEWEB-0375             
1 49301U 21090Y   23173.80872428 -.00000072  00000+0 -21003-3 0  9993
2 49301  87.9236 131.5282 0002782  94.1611 265.9840 13.20772391 87887
ONEWEB-0376             
1 49302U 21090Z   23174.01808865 -.00000153  00000+0 -41567-3 0  9999
2 49302  87.9257 161.8493 0001940  78.1828 281.9522 13.19726477 83948
ONEWEB-0377             
1 49303U 21090AA  23173.80621046  .00000060  00000+0  11560-3 0  9995
2 49303  87.9234 131.5242 0001894  85.8290 274.3059 13.20771724 87869
ONEWEB-0378             
1 49304U 21090AB  23173.16353075  .00000079  00000+0  16128-3 0  9994
2 49304  87.9235 131.6464 0002487  81.2781 278.8634 13.20773401 87088
ONEWEB-0379             
1 49305U 21090AC  23173.19257318 -.00000110  00000+0 -33054-3 0  9996
2 49305  87.9034 146.8340 0002194  81.4276 278.7102 13.14500846 85534
ONEWEB-0380             
1 49306U 21090AD  23173.71062105 -.00000039  00000+0 -13045-3 0  9991
2 49306  87.9256 161.9073 0001937  92.2152 267.9203 13.19722989 83875
ONEWEB-0381             
1 49307U 21090AE  23173.18499033  .00000062  00000+0  12025-3 0  9998
2 49307  87.9189 131.5918 0002190  88.4183 271.7201 13.20770054 87115
ONEWEB-0382             
1 49308U 21090AF  23173.77843650  .00000109  00000+0  23548-3 0  9996
2 49308  87.9237 131.5266 0002529  87.1224 273.0199 13.20771068 87199
ONEWEB-0383             
1 49309U 21090AG  23173.64293753 -.00000241  00000+0 -68545-3 0  9991
2 49309  87.9033 146.7274 0002341  81.2696 278.8699 13.14501477 85612
ONEWEB-0384             
1 49310U 21090AH  23173.92742235  .00000033  00000+0  49753-4 0  9996
2 49310  87.9236 131.4943 0002889  87.4430 272.7034 13.20773180 87228
ONEWEB-0385             
1 49311U 21090AJ  23173.39206705  .00000031  00000+0  43478-4 0  9991
2 49311  87.9237 131.6027 0002528  88.8126 271.3296 13.20772385 87133
ONEWEB-0386             
1 49312U 21090AK  23173.78852442  .00000035  00000+0  54685-4 0  9996
2 49312  87.9241 131.5339 0002569  84.9203 275.2223 13.20772861 87190
